OBJECT_NAME,OBJECT_ID,EPOCH,MEAN_MOTION,ECCENTRICITY,INCLINATION,RA_OF_ASC_NODE,ARG_OF_PERICENTER,MEAN_ANOMALY,EPHEMERIS_TYPE,CLASSIFICATION_TYPE,NORAD_CAT_ID,ELEMENT_SET_NO,REV_AT_EPOCH,BSTAR,MEAN_MOTION_DOT,MEAN_MOTION_DDOT
ATLAS CENTAUR 2,1963-047A,2026-07-01T09:58:07.397760,14.12543296,.05457948,30.3544,279.8270,2.9826,357.3844,0,U,694,999,14771,.12813064E-3,.1144E-4,0
THOR AGENA D R/B,1964-002A,2026-07-01T11:02:20.607936,14.34071319,.00318004,99.1152,201.9618,287.9414,71.8303,0,U,733,999,25460,.84432547E-4,.188E-5,0
SL-3 R/B,1964-053B,2026-07-01T11:53:03.287616,14.61433261,.00806699,65.0779,357.5595,256.6202,102.5896,0,U,877,999,28342,.55176484E-4,.16E-5,0
SL-8 R/B,1967-045B,2026-07-01T06:31:21.881856,14.45688928,.00630762,74.0106,135.9530,116.5114,244.2531,0,U,2802,999,10543,.87625441E-4,.29E-5,0
SL-8 R/B,1968-040B,2026-07-01T10:03:39.672288,15.03886423,.00257006,74.0311,81.1844,232.0389,127.8478,0,U,3230,999,10710,.19983197E-3,.273E-4,0
OAO 2,1968-110A,2026-07-01T14:39:02.943936,14.47357598,.0005183,34.9948,349.1457,23.7353,336.3576,0,U,3597,999,3561,.58923318E-4,.2E-5,0
ISIS 1,1969-009A,2026-07-01T06:21:44.131968,11.30435294,.17067216,88.4439,142.8531,219.7808,126.5085,0,U,3669,999,36136,.39189906E-4,.59E-6,0
SERT 2,1970-009A,2026-07-01T11:26:51.852192,13.58740160,.00040533,99.2840,119.4232,228.5049,243.6206,0,U,4327,999,79534,.51436672E-4,-.4E-7,0
SL-3 R/B,1971-028B,2026-07-01T15:31:41.415168,15.71144585,.00144046,81.2327,270.2307,228.6904,131.3116,0,U,5118,999,651,.44265765E-3,.56336E-3,0
ASTEX 1,1971-089A,2026-07-01T11:41:09.129408,14.50862767,.00177262,92.6998,188.4609,64.1782,296.1250,0,U,5560,999,87880,.12928624E-3,.51E-5,0
SL-8 R/B,1971-119B,2026-07-01T11:19:47.821728,14.39601384,.0543422,73.8891,322.6820,265.7799,88.1106,0,U,5730,999,67185,.23861077E-3,.4645E-4,0
OAO 3 (COPERNICUS),1972-065A,2026-07-01T12:31:31.177632,14.60068209,.00065072,35.0070,8.7265,5.1492,20.4513,0,U,6153,999,86284,.66874355E-4,.305E-5,0
ATLAS CENTAUR R/B,1972-065B,2026-07-01T14:23:08.852064,14.77947844,.0034223,35.0030,358.0494,249.9522,109.7492,0,U,6155,999,85812,.13917439E-3,.1006E-4,0
SL-8 R/B,1975-112B,2026-07-01T10:32:15.702432,14.38252781,.00166483,74.0593,169.6546,234.8187,125.1409,0,U,8459,999,64822,.60593739E-4,.158E-5,0
SL-3 R/B,1977-057B,2026-07-01T13:36:56.093760,15.48166424,.0005985,97.5839,359.8071,219.6776,140.4037,0,U,10114,999,68593,.22791139E-3,.11892E-3,0
SEASAT 1,1978-064A,2026-07-01T06:44:10.822848,14.46253017,.00014203,108.0180,3.8742,243.0160,117.0841,0,U,10967,999,52293,.1107108E-3,.259E-5,0
SL-14 R/B,1979-011B,2026-07-01T11:02:56.112288,14.92027771,.00169655,82.5242,348.6072,41.7500,318.5011,0,U,11267,999,54574,.54868064E-4,.583E-5,0
SL-8 R/B,1979-089B,2026-07-01T11:49:05.916576,14.42410003,.00154353,74.0681,240.3764,19.0526,341.1204,0,U,11574,999,45251,.67293808E-4,.196E-5,0
SL-14 R/B,1980-005B,2026-07-01T11:33:02.083968,14.91040029,.0016731,82.5132,199.2808,139.6188,220.6277,0,U,11672,999,49344,.47604535E-4,.498E-5,0
SL-8 R/B,1981-003B,2026-07-01T11:46:33.584736,15.14657794,.02507164,82.9348,184.4781,141.2309,220.7219,0,U,12139,999,33188,.44923108E-3,.18708E-3,0
SL-3 R/B,1981-046B,2026-07-01T13:45:48.119040,15.44503883,.0016925,81.2302,152.7349,348.0668,12.0172,0,U,12465,999,45599,.28202664E-3,.13178E-3,0
SL-3 R/B,1981-103B,2026-07-01T13:55:16.999968,15.22400347,.00114691,81.1586,79.7239,262.0126,97.9805,0,U,12904,999,99055,.20767755E-3,.4829E-4,0
SL-3 R/B,1982-013B,2026-07-01T11:33:08.085312,15.22877988,.0022352,81.1729,27.2775,152.9101,207.3304,0,U,13068,999,42166,.15827089E-3,.3759E-4,0
SL-3 R/B,1982-039B,2026-07-01T12:59:35.423808,15.10628743,.0027586,81.1487,84.5027,306.5633,53.3054,0,U,13154,999,39882,.2138841E-3,.3589E-4,0
SL-3 R/B,1982-079B,2026-07-01T11:28:09.238080,15.25905798,.0024676,81.1453,58.5829,137.9888,222.3244,0,U,13403,999,39504,.20802661E-3,.5406E-4,0
SL-14 R/B,1982-092B,2026-07-01T08:11:20.558688,14.86757170,.00187951,82.5670,35.0578,285.4527,247.5719,0,U,13553,999,34581,.43451261E-4,.412E-5,0
SL-3 R/B,1983-010B,2026-07-01T09:30:27.135360,15.49595001,.00145324,81.0997,222.4610,13.7133,346.4505,0,U,13819,999,37553,.30026516E-3,.167E-3,0
SL-3 R/B,1983-075B,2026-07-01T14:50:06.473472,15.40750190,.00208999,97.6097,191.7140,175.9811,184.1607,0,U,14208,999,34768,.28067554E-3,.11479E-3,0
COSMOS 1536,1984-013A,2026-07-01T12:44:46.620096,15.25204636,.00128366,82.5446,354.5554,238.9639,121.0339,0,U,14699,999,28996,.26213598E-3,.6626E-4,0
SL-14 R/B,1984-027B,2026-07-01T06:54:11.002176,14.86070680,.00168993,82.5423,138.4944,321.5070,38.4940,0,U,14820,999,26450,.5433742E-4,.501E-5,0
