ATLAS CENTAUR 2         
1 00694U 63047A   26182.41536340  .00001144  00000+0  12813-3 0  9991
2 00694  30.3544 279.8270 0545794   2.9826 357.3844 14.12543296147717
THOR AGENA D R/B        
1 00733U 64002A   26182.45996074  .00000188  00000+0  84433-4 0  9990
2 00733  99.1152 201.9618 0031800 287.9414  71.8303 14.34071319254608
SL-3 R/B                
1 00877U 64053B   26182.49517694  .00000160  00000+0  55176-4 0  9998
2 00877  65.0779 357.5595 0080669 256.6202 102.5896 14.61433261283420
SL-8 R/B                
1 02802U 67045B   26182.27178104  .00000290  00000+0  87625-4 0  9995
2 02802  74.0106 135.9530 0063076 116.5114 244.2531 14.45688928105438
SL-8 R/B                
1 03230U 68040B   26182.41920917  .00002730  00000+0  19983-3 0  9992
2 03230  74.0311  81.1844 0025700 232.0389 127.8478 15.03886423107109
OAO 2                   
1 03597U 68110A   26182.61045074  .00000200  00000+0  58923-4 0  9998
2 03597  34.9948 349.1457 0005183  23.7353 336.3576 14.47357598 35617
ISIS 1                  
1 03669U 69009A   26182.26509412  .00000059  00000+0  39190-4 0  9995
2 03669  88.4439 142.8531 1706721 219.7808 126.5085 11.30435294361363
SERT 2                  
1 04327U 70009A   26182.47698903 -.00000004  00000+0  51437-4 0  9995
2 04327  99.2840 119.4232 0004053 228.5049 243.6206 13.58740160795340
SL-3 R/B                
1 05118U 71028B   26182.64700712  .00056336  00000+0  44266-3 0  9996
2 05118  81.2327 270.2307 0014404 228.6904 131.3116 15.71144585  6514
ASTEX 1                 
1 05560U 71089A   26182.48691122  .00000510  00000+0  12929-3 0  9994
2 05560  92.6998 188.4609 0017726  64.1782 296.1250 14.50862767878800
SL-8 R/B                
1 05730U 71119B   26182.47208127  .00004645  00000+0  23861-3 0  9995
2 05730  73.8891 322.6820 0543422 265.7799  88.1106 14.39601384671851
OAO 3 (COPERNICUS)      
1 06153U 72065A   26182.52188863  .00000305  00000+0  66874-4 0  9997
2 06153  35.0070   8.7265 0006507   5.1492  20.4513 14.60068209862848
ATLAS CENTAUR R/B       
1 06155U 72065B   26182.59940801  .00001006  00000+0  13917-3 0  9992
2 06155  35.0030 358.0494 0034223 249.9522 109.7492 14.77947844858121
SL-8 R/B                
1 08459U 75112B   26182.43907063  .00000158  00000+0  60594-4 0  9994
2 08459  74.0593 169.6546 0016648 234.8187 125.1409 14.38252781648226
SL-3 R/B                
1 10114U 77057B   26182.56731590  .00011892  00000+0  22791-3 0  9992
2 10114  97.5839 359.8071 0005985 219.6776 140.4037 15.48166424685939
SEASAT 1                
1 10967U 78064A   26182.28068082  .00000259  00000+0  11071-3 0  9999
2 10967 108.0180   3.8742 0001420 243.0160 117.0841 14.46253017522936
SL-14 R/B               
1 11267U 79011B   26182.46037167  .00000583  00000+0  54868-4 0  9998
2 11267  82.5242 348.6072 0016965  41.7500 318.5011 14.92027771545740
SL-8 R/B                
1 11574U 79089B   26182.49242959  .00000196  00000+0  67294-4 0  9991
2 11574  74.0681 240.3764 0015435  19.0526 341.1204 14.42410003452514
SL-14 R/B               
1 11672U 80005B   26182.48127412  .00000498  00000+0  47605-4 0  9994
2 11672  82.5132 199.2808 0016731 139.6188 220.6277 14.91040029493441
SL-8 R/B                
1 12139U 81003B   26182.49066649  .00018708  00000+0  44923-3 0  9999
2 12139  82.9348 184.4781 0250716 141.2309 220.7219 15.14657794331881
SL-3 R/B                
1 12465U 81046B   26182.57347360  .00013178  00000+0  28203-3 0  9998
2 12465  81.2302 152.7349 0016925 348.0668  12.0172 15.44503883455991
SL-3 R/B                
1 12904U 81103B   26182.58005787  .00004829  00000+0  20768-3 0  9996
2 12904  81.1586  79.7239 0011469 262.0126  97.9805 15.22400347990558
SL-3 R/B                
1 13068U 82013B   26182.48134358  .00003759  00000+0  15827-3 0  9996
2 13068  81.1729  27.2775 0022352 152.9101 207.3304 15.22877988421666
SL-3 R/B                
1 13154U 82039B   26182.54138222  .00003589  00000+0  21388-3 0  9991
2 13154  81.1487  84.5027 0027586 306.5633  53.3054 15.10628743398822
SL-3 R/B                
1 13403U 82079B   26182.47788470  .00005406  00000+0  20803-3 0  9991
2 13403  81.1453  58.5829 0024676 137.9888 222.3244 15.25905798395042
SL-14 R/B               
1 13553U 82092B   26182.34121017  .00000412  00000+0  43451-4 0  9993
2 13553  82.5670  35.0578 0018795 285.4527 247.5719 14.86757170345810
SL-3 R/B                
1 13819U 83010B   26182.39614740  .00016700  00000+0  30027-3 0  9995
2 13819  81.0997 222.4610 0014532  13.7133 346.4505 15.49595001375537
SL-3 R/B                
1 14208U 83075B   26182.61813048  .00011479  00000+0  28068-3 0  9996
2 14208  97.6097 191.7140 0020899 175.9811 184.1607 15.40750190347685
COSMOS 1536             
1 14699U 84013A   26182.53109514  .00006626  00000+0  26214-3 0  9999
2 14699  82.5446 354.5554 0012836 238.9639 121.0339 15.25204636289968
SL-14 R/B               
1 14820U 84027B   26182.28762734  .00000501  00000+0  54337-4 0  9995
2 14820  82.5423 138.4944 0016899 321.5070  38.4940 14.86070680264500
